{
  "type": "FeatureCollection",
  "features": [
    {
      "type": "Feature",
      "properties": {
        "norad_id": 29486,
        "name": "GPS BIIRM-2 (PRN 31)",
        "group": "gps-ops",
        "lat": -24.694702385561904,
        "lon": 139.72197784955534,
        "alt_km": 20147.365950074258,
        "timestamp": "2025-12-12T11:38:31.670670+00:00",
        "meta_object_name": "GPS BIIRM-2 (PRN 31)",
        "meta_object_id": "2006-042A",
        "meta_epoch": "2025-12-11T18:34:08.503392",
        "meta_mean_motion": 2.00554182,
        "meta_eccentricity": 0.0107356,
        "meta_inclination": 54.6941,
        "meta_ra_of_asc_node": 158.779,
        "meta_arg_of_pericenter": 51.9381,
        "meta_mean_anomaly": 124.8587,
        "meta_ephemeris_type": 0,
        "meta_classification_type": "U",
        "meta_norad_cat_id": 29486,
        "meta_element_set_no": 999,
        "meta_rev_at_epoch": 14063,
        "meta_bstar": 0,
        "meta_mean_motion_dot": 9.1e-07,
        "meta_mean_motion_ddot": 0,
        "tle_line1": "1 29486U 06042A   25345.77370953  .00000091  00000+0  00000+0 0  9999",
        "tle_line2": "2 29486  54.6941 158.7790 0107356  51.9381 124.8587  2.00554182140632"
      },
      "geometry": {
        "type": "Point",
        "coordinates": [
          139.72197784955534,
          -24.694702385561904
        ]
      }
    },
    {
      "type": "Feature",
      "properties": {
        "norad_id": 29601,
        "name": "GPS BIIRM-3 (PRN 12)",
        "group": "gps-ops",
        "lat": 21.92483286996174,
        "lon": -122.19776526917254,
        "alt_km": 20061.672937297673,
        "timestamp": "2025-12-12T11:38:31.670682+00:00",
        "meta_object_name": "GPS BIIRM-3 (PRN 12)",
        "meta_object_id": "2006-052A",
        "meta_epoch": "2025-12-10T22:50:57.051744",
        "meta_mean_motion": 2.00573438,
        "meta_eccentricity": 0.0087723,
        "meta_inclination": 54.9709,
        "meta_ra_of_asc_node": 221.4692,
        "meta_arg_of_pericenter": 87.4136,
        "meta_mean_anomaly": 273.6655,
        "meta_ephemeris_type": 0,
        "meta_classification_type": "U",
        "meta_norad_cat_id": 29601,
        "meta_element_set_no": 999,
        "meta_rev_at_epoch": 13963,
        "meta_bstar": 0,
        "meta_mean_motion_dot": 3e-08,
        "meta_mean_motion_ddot": 0,
        "tle_line1": "1 29601U 06052A   25344.95204921  .00000003  00000+0  00000+0 0  9992",
        "tle_line2": "2 29601  54.9709 221.4692 0087723  87.4136 273.6655  2.00573438139634"
      },
      "geometry": {
        "type": "Point",
        "coordinates": [
          -122.19776526917254,
          21.92483286996174
        ]
      }
    },
    {
      "type": "Feature",
      "properties": {
        "norad_id": 32260,
        "name": "GPS BIIRM-4 (PRN 15)",
        "group": "gps-ops",
        "lat": 8.093109257799124,
        "lon": -98.17080987490665,
        "alt_km": 20134.16260056831,
        "timestamp": "2025-12-12T11:38:31.670694+00:00",
        "meta_object_name": "GPS BIIRM-4 (PRN 15)",
        "meta_object_id": "2007-047A",
        "meta_epoch": "2025-12-11T06:11:12.991200",
        "meta_mean_motion": 2.00564547,
        "meta_eccentricity": 0.0164204,
        "meta_inclination": 53.9543,
        "meta_ra_of_asc_node": 87.8198,
        "meta_arg_of_pericenter": 85.2289,
        "meta_mean_anomaly": 276.6392,
        "meta_ephemeris_type": 0,
        "meta_classification_type": "U",
        "meta_norad_cat_id": 32260,
        "meta_element_set_no": 999,
        "meta_rev_at_epoch": 13304,
        "meta_bstar": 0,
        "meta_mean_motion_dot": -2.3e-07,
        "meta_mean_motion_ddot": 0,
        "tle_line1": "1 32260U 07047A   25345.25778925 -.00000023  00000+0  00000+0 0  9999",
        "tle_line2": "2 32260  53.9543  87.8198 0164204  85.2289 276.6392  2.00564547133045"
      },
      "geometry": {
        "type": "Point",
        "coordinates": [
          -98.17080987490665,
          8.093109257799124
        ]
      }
    },
    {
      "type": "Feature",
      "properties": {
        "norad_id": 32384,
        "name": "GPS BIIRM-5 (PRN 29)",
        "group": "gps-ops",
        "lat": -46.73419172211271,
        "lon": -125.96288909154805,
        "alt_km": 20246.853970905202,
        "timestamp": "2025-12-12T11:38:31.670706+00:00",
        "meta_object_name": "GPS BIIRM-5 (PRN 29)",
        "meta_object_id": "2007-062A",
        "meta_epoch": "2025-12-11T19:20:30.701760",
        "meta_mean_motion": 2.00577226,
        "meta_eccentricity": 0.00322349,
        "meta_inclination": 55.183,
        "meta_ra_of_asc_node": 281.6834,
        "meta_arg_of_pericenter": 162.4856,
        "meta_mean_anomaly": 4.3365,
        "meta_ephemeris_type": 0,
        "meta_classification_type": "U",
        "meta_norad_cat_id": 32384,
        "meta_element_set_no": 999,
        "meta_rev_at_epoch": 13175,
        "meta_bstar": 0,
        "meta_mean_motion_dot": -7.4e-07,
        "meta_mean_motion_ddot": 0,
        "tle_line1": "1 32384U 07062A   25345.80591090 -.00000074  00000+0  00000+0 0  9996",
        "tle_line2": "2 32384  55.1830 281.6834 0032234 162.4856   4.3365  2.00577226131751"
      },
      "geometry": {
        "type": "Point",
        "coordinates": [
          -125.96288909154805,
          -46.73419172211271
        ]
      }
    },
    {
      "type": "Feature",
      "properties": {
        "norad_id": 32711,
        "name": "GPS BIIRM-6 (PRN 07)",
        "group": "gps-ops",
        "lat": -32.06171421264682,
        "lon": 3.9643091074234116,
        "alt_km": 19694.16051767319,
        "timestamp": "2025-12-12T11:38:31.670718+00:00",
        "meta_object_name": "GPS BIIRM-6 (PRN 07)",
        "meta_object_id": "2008-012A",
        "meta_epoch": "2025-12-11T16:14:23.545824",
        "meta_mean_motion": 2.00565584,
        "meta_eccentricity": 0.0202401,
        "meta_inclination": 54.477,
        "meta_ra_of_asc_node": 157.4153,
        "meta_arg_of_pericenter": 244.9354,
        "meta_mean_anomaly": 112.9612,
        "meta_ephemeris_type": 0,
        "meta_classification_type": "U",
        "meta_norad_cat_id": 32711,
        "meta_element_set_no": 999,
        "meta_rev_at_epoch": 12999,
        "meta_bstar": 0,
        "meta_mean_motion_dot": 8.9e-07,
        "meta_mean_motion_ddot": 0,
        "tle_line1": "1 32711U 08012A   25345.67666141  .00000089  00000+0  00000+0 0  9996",
        "tle_line2": "2 32711  54.4770 157.4153 0202401 244.9354 112.9612  2.00565584129996"
      },
      "geometry": {
        "type": "Point",
        "coordinates": [
          3.9643091074234116,
          -32.06171421264682
        ]
      }
    },
    {
      "type": "Feature",
      "properties": {
        "norad_id": 35752,
        "name": "GPS BIIRM-8 (PRN 05)",
        "group": "gps-ops",
        "lat": -47.01647208623949,
        "lon": -99.04000304771328,
        "alt_km": 20316.706551724907,
        "timestamp": "2025-12-12T11:38:31.670729+00:00",
        "meta_object_name": "GPS BIIRM-8 (PRN 05)",
        "meta_object_id": "2009-043A",
        "meta_epoch": "2025-12-11T15:37:32.913696",
        "meta_mean_motion": 2.00565741,
        "meta_eccentricity": 0.00518358,
        "meta_inclination": 56.0903,
        "meta_ra_of_asc_node": 34.8259,
        "meta_arg_of_pericenter": 81.9315,
        "meta_mean_anomaly": 277.4877,
        "meta_ephemeris_type": 0,
        "meta_classification_type": "U",
        "meta_norad_cat_id": 35752,
        "meta_element_set_no": 999,
        "meta_rev_at_epoch": 11959,
        "meta_bstar": 0,
        "meta_mean_motion_dot": -9.6e-07,
        "meta_mean_motion_ddot": 0,
        "tle_line1": "1 35752U 09043A   25345.65107539 -.00000096  00000+0  00000+0 0  9997",
        "tle_line2": "2 35752  56.0903  34.8259 0051835  81.9315 277.4877  2.00565741119594"
      },
      "geometry": {
        "type": "Point",
        "coordinates": [
          -99.04000304771328,
          -47.01647208623949
        ]
      }
    },
    {
      "type": "Feature",
      "properties": {
        "norad_id": 36585,
        "name": "GPS BIIF-1  (PRN 25)",
        "group": "gps-ops",
        "lat": -1.1161594695725359,
        "lon": -144.70954350242752,
        "alt_km": 20045.860192873315,
        "timestamp": "2025-12-12T11:38:31.670741+00:00",
        "meta_object_name": "GPS BIIF-1  (PRN 25)",
        "meta_object_id": "2010-022A",
        "meta_epoch": "2025-12-11T07:42:38.318112",
        "meta_mean_motion": 2.00553138,
        "meta_eccentricity": 0.0126045,
        "meta_inclination": 54.3003,
        "meta_ra_of_asc_node": 216.1311,
        "meta_arg_of_pericenter": 65.0548,
        "meta_mean_anomaly": 174.6737,
        "meta_ephemeris_type": 0,
        "meta_classification_type": "U",
        "meta_norad_cat_id": 36585,
        "meta_element_set_no": 999,
        "meta_rev_at_epoch": 11382,
        "meta_bstar": 0,
        "meta_mean_motion_dot": 1.4e-07,
        "meta_mean_motion_ddot": 0,
        "tle_line1": "1 36585U 10022A   25345.32127683  .00000014  00000+0  00000+0 0  9996",
        "tle_line2": "2 36585  54.3003 216.1311 0126045  65.0548 174.6737  2.00553138113822"
      },
      "geometry": {
        "type": "Point",
        "coordinates": [
          -144.70954350242752,
          -1.1161594695725359
        ]
      }
    }
  ]
}